INTELSAT 19 (IS-19)     
1 38356U 12030A   25333.82497610 -.00000035  00000+0  00000+0 0  9991
2 38356   0.0094 350.2572 0003295 263.0159 278.7039  1.00271343 48457
INTELSAT 20 (IS-20)     
1 38740U 12043A   25334.10114105 -.00000003  00000+0  00000+0 0  9994
2 38740   0.0135 125.1132 0003093  62.7085 346.3450  1.00271657 48759
INTELSAT 21 (IS-21)     
1 38749U 12045A   25334.06591259 -.00000263  00000+0  00000+0 0  9997
2 38749   0.0535  93.0570 0001895 154.5274 147.3605  1.00270506 48527
INTELSAT 23 (IS-23)     
1 38867U 12057A   25334.06686595 -.00000263  00000+0  00000+0 0  9999
2 38867   0.0405 122.5051 0001793  83.4057 194.3742  1.00271604 47952
FM-6                    
1 39360U 13058A   25334.05438588  .00000004  00000+0  00000+0 0  9998
2 39360   0.0072 122.8966 0002927  51.2545 158.4670  1.00271925 44071
INTELSAT 30 (IS-30)     
1 40271U 14062A   25333.98721881 -.00000130  00000+0  00000+0 0  9990
2 40271   0.0130   3.6881 0001299  82.8870 242.9058  1.00270729  4787
DIRECTV 14              
1 40333U 14078B   25333.98643880 -.00000104  00000+0  00000+0 0  9999
2 40333   0.0196 311.8025 0000309 211.2814 161.9401  1.00269631 40040
DIRECTV 15              
1 40663U 15026A   25333.98565880 -.00000081  00000+0  00000+0 0  9996
2 40663   0.0376 105.4714 0000210  91.4265 124.2023  1.00270610 38461
