{
  "type": "FeatureCollection",
  "features": [
    {
      "type": "Feature",
      "properties": {
        "OBJECT_NAME": "INTELSAT 19 (IS-19)",
        "OBJECT_ID": "2012-030A",
        "EPOCH": "2025-11-29T19:47:57.935040",
        "MEAN_MOTION": 1.00271343,
        "ECCENTRICITY": 0.0003295,
        "INCLINATION": 0.0094,
        "RA_OF_ASC_NODE": 350.2572,
        "ARG_OF_PERICENTER": 263.0159,
        "MEAN_ANOMALY": 278.7039,
        "EPHEMERIS_TYPE": 0,
        "CLASSIFICATION_TYPE": "U",
        "NORAD_CAT_ID": 38356,
        "ELEMENT_SET_NO": 999,
        "REV_AT_EPOCH": 4845,
        "BSTAR": 0,
        "MEAN_MOTION_DOT": -3.5e-07,
        "MEAN_MOTION_DDOT": 0,
        "norad_id": 38356,
        "name": "INTELSAT 19 (IS-19)",
        "group": "intelsat",
        "longitude_deg": NaN,
        "latitude_deg": NaN,
        "alt_km": NaN,
        "orbit_class": "HEO",
        "timestamp": "2025-11-30T09:33:02.503399+00:00"
      },
      "geometry": {
        "type": "Point",
        "coordinates": [
          NaN,
          NaN
        ]
      }
    },
    {
      "type": "Feature",
      "properties": {
        "OBJECT_NAME": "INTELSAT 20 (IS-20)",
        "OBJECT_ID": "2012-043A",
        "EPOCH": "2025-11-30T02:25:38.586720",
        "MEAN_MOTION": 1.00271657,
        "ECCENTRICITY": 0.0003093,
        "INCLINATION": 0.0135,
        "RA_OF_ASC_NODE": 125.1132,
        "ARG_OF_PERICENTER": 62.7085,
        "MEAN_ANOMALY": 346.345,
        "EPHEMERIS_TYPE": 0,
        "CLASSIFICATION_TYPE": "U",
        "NORAD_CAT_ID": 38740,
        "ELEMENT_SET_NO": 999,
        "REV_AT_EPOCH": 4875,
        "BSTAR": 0,
        "MEAN_MOTION_DOT": -3e-08,
        "MEAN_MOTION_DDOT": 0,
        "norad_id": 38740,
        "name": "INTELSAT 20 (IS-20)",
        "group": "intelsat",
        "longitude_deg": NaN,
        "latitude_deg": NaN,
        "alt_km": NaN,
        "orbit_class": "HEO",
        "timestamp": "2025-11-30T09:33:02.503465+00:00"
      },
      "geometry": {
        "type": "Point",
        "coordinates": [
          NaN,
          NaN
        ]
      }
    },
    {
      "type": "Feature",
      "properties": {
        "OBJECT_NAME": "INTELSAT 21 (IS-21)",
        "OBJECT_ID": "2012-045A",
        "EPOCH": "2025-11-30T01:34:54.847776",
        "MEAN_MOTION": 1.00270506,
        "ECCENTRICITY": 0.0001895,
        "INCLINATION": 0.0535,
        "RA_OF_ASC_NODE": 93.057,
        "ARG_OF_PERICENTER": 154.5274,
        "MEAN_ANOMALY": 147.3605,
        "EPHEMERIS_TYPE": 0,
        "CLASSIFICATION_TYPE": "U",
        "NORAD_CAT_ID": 38749,
        "ELEMENT_SET_NO": 999,
        "REV_AT_EPOCH": 4852,
        "BSTAR": 0,
        "MEAN_MOTION_DOT": -2.63e-06,
        "MEAN_MOTION_DDOT": 0,
        "norad_id": 38749,
        "name": "INTELSAT 21 (IS-21)",
        "group": "intelsat",
        "longitude_deg": NaN,
        "latitude_deg": NaN,
        "alt_km": NaN,
        "orbit_class": "HEO",
        "timestamp": "2025-11-30T09:33:02.503485+00:00"
      },
      "geometry": {
        "type": "Point",
        "coordinates": [
          NaN,
          NaN
        ]
      }
    },
    {
      "type": "Feature",
      "properties": {
        "OBJECT_NAME": "INTELSAT 23 (IS-23)",
        "OBJECT_ID": "2012-057A",
        "EPOCH": "2025-11-30T01:36:17.218080",
        "MEAN_MOTION": 1.00271604,
        "ECCENTRICITY": 0.0001793,
        "INCLINATION": 0.0405,
        "RA_OF_ASC_NODE": 122.5051,
        "ARG_OF_PERICENTER": 83.4057,
        "MEAN_ANOMALY": 194.3742,
        "EPHEMERIS_TYPE": 0,
        "CLASSIFICATION_TYPE": "U",
        "NORAD_CAT_ID": 38867,
        "ELEMENT_SET_NO": 999,
        "REV_AT_EPOCH": 4795,
        "BSTAR": 0,
        "MEAN_MOTION_DOT": -2.63e-06,
        "MEAN_MOTION_DDOT": 0,
        "norad_id": 38867,
        "name": "INTELSAT 23 (IS-23)",
        "group": "intelsat",
        "longitude_deg": NaN,
        "latitude_deg": NaN,
        "alt_km": NaN,
        "orbit_class": "HEO",
        "timestamp": "2025-11-30T09:33:02.503629+00:00"
      },
      "geometry": {
        "type": "Point",
        "coordinates": [
          NaN,
          NaN
        ]
      }
    },
    {
      "type": "Feature",
      "properties": {
        "OBJECT_NAME": "FM-6",
        "OBJECT_ID": "2013-058A",
        "EPOCH": "2025-11-30T01:18:18.940032",
        "MEAN_MOTION": 1.00271925,
        "ECCENTRICITY": 0.0002927,
        "INCLINATION": 0.0072,
        "RA_OF_ASC_NODE": 122.8966,
        "ARG_OF_PERICENTER": 51.2545,
        "MEAN_ANOMALY": 158.467,
        "EPHEMERIS_TYPE": 0,
        "CLASSIFICATION_TYPE": "U",
        "NORAD_CAT_ID": 39360,
        "ELEMENT_SET_NO": 999,
        "REV_AT_EPOCH": 4407,
        "BSTAR": 0,
        "MEAN_MOTION_DOT": 4e-08,
        "MEAN_MOTION_DDOT": 0,
        "norad_id": 39360,
        "name": "FM-6",
        "group": "intelsat",
        "longitude_deg": NaN,
        "latitude_deg": NaN,
        "alt_km": NaN,
        "orbit_class": "HEO",
        "timestamp": "2025-11-30T09:33:02.504189+00:00"
      },
      "geometry": {
        "type": "Point",
        "coordinates": [
          NaN,
          NaN
        ]
      }
    },
    {
      "type": "Feature",
      "properties": {
        "OBJECT_NAME": "INTELSAT 30 (IS-30)",
        "OBJECT_ID": "2014-062A",
        "EPOCH": "2025-11-29T23:41:35.705184",
        "MEAN_MOTION": 1.00270729,
        "ECCENTRICITY": 0.0001299,
        "INCLINATION": 0.013,
        "RA_OF_ASC_NODE": 3.6881,
        "ARG_OF_PERICENTER": 82.887,
        "MEAN_ANOMALY": 242.9058,
        "EPHEMERIS_TYPE": 0,
        "CLASSIFICATION_TYPE": "U",
        "NORAD_CAT_ID": 40271,
        "ELEMENT_SET_NO": 999,
        "REV_AT_EPOCH": 478,
        "BSTAR": 0,
        "MEAN_MOTION_DOT": -1.3e-06,
        "MEAN_MOTION_DDOT": 0,
        "norad_id": 40271,
        "name": "INTELSAT 30 (IS-30)",
        "group": "intelsat",
        "longitude_deg": NaN,
        "latitude_deg": NaN,
        "alt_km": NaN,
        "orbit_class": "HEO",
        "timestamp": "2025-11-30T09:33:02.505038+00:00"
      },
      "geometry": {
        "type": "Point",
        "coordinates": [
          NaN,
          NaN
        ]
      }
    },
    {
      "type": "Feature",
      "properties": {
        "OBJECT_NAME": "DIRECTV 14",
        "OBJECT_ID": "2014-078B",
        "EPOCH": "2025-11-29T23:40:28.312320",
        "MEAN_MOTION": 1.00269631,
        "ECCENTRICITY": 3.09e-05,
        "INCLINATION": 0.0196,
        "RA_OF_ASC_NODE": 311.8025,
        "ARG_OF_PERICENTER": 211.2814,
        "MEAN_ANOMALY": 161.9401,
        "EPHEMERIS_TYPE": 0,
        "CLASSIFICATION_TYPE": "U",
        "NORAD_CAT_ID": 40333,
        "ELEMENT_SET_NO": 999,
        "REV_AT_EPOCH": 4004,
        "BSTAR": 0,
        "MEAN_MOTION_DOT": -1.04e-06,
        "MEAN_MOTION_DDOT": 0,
        "norad_id": 40333,
        "name": "DIRECTV 14",
        "group": "intelsat",
        "longitude_deg": NaN,
        "latitude_deg": NaN,
        "alt_km": NaN,
        "orbit_class": "HEO",
        "timestamp": "2025-11-30T09:33:02.505115+00:00"
      },
      "geometry": {
        "type": "Point",
        "coordinates": [
          NaN,
          NaN
        ]
      }
    },
    {
      "type": "Feature",
      "properties": {
        "OBJECT_NAME": "DIRECTV 15",
        "OBJECT_ID": "2015-026A",
        "EPOCH": "2025-11-29T23:39:20.920320",
        "MEAN_MOTION": 1.0027061,
        "ECCENTRICITY": 2.1e-05,
        "INCLINATION": 0.0376,
        "RA_OF_ASC_NODE": 105.4714,
        "ARG_OF_PERICENTER": 91.4265,
        "MEAN_ANOMALY": 124.2023,
        "EPHEMERIS_TYPE": 0,
        "CLASSIFICATION_TYPE": "U",
        "NORAD_CAT_ID": 40663,
        "ELEMENT_SET_NO": 999,
        "REV_AT_EPOCH": 3846,
        "BSTAR": 0,
        "MEAN_MOTION_DOT": -8.1e-07,
        "MEAN_MOTION_DDOT": 0,
        "norad_id": 40663,
        "name": "DIRECTV 15",
        "group": "intelsat",
        "longitude_deg": NaN,
        "latitude_deg": NaN,
        "alt_km": NaN,
        "orbit_class": "HEO",
        "timestamp": "2025-11-30T09:33:02.505349+00:00"
      },
      "geometry": {
        "type": "Point",
        "coordinates": [
          NaN,
          NaN
        ]
      }
    }
  ]
}